[{"OBJECT_NAME":"STARLINK-5311","OBJECT_ID":"2023-010V","EPOCH":"2026-03-09T23:37:12.408096","MEAN_MOTION":14.98345855,"ECCENTRICITY":0.00028196,"INCLINATION":70.0071,"RA_OF_ASC_NODE":23.7081,"ARG_OF_PERICENTER":254.1785,"MEAN_ANOMALY":105.9063,"EPHEMERIS_TYPE":0,"CLASSIFICATION_TYPE":"U","NORAD_CAT_ID":55288,"ELEMENT_SET_NO":999,"REV_AT_EPOCH":17331,"BSTAR":0.00096810895,"MEAN_MOTION_DOT":0.00011482,"MEAN_MOTION_DDOT":0},{"OBJECT_NAME":"FENGYUN 1C DEB","OBJECT_ID":"1999-025DZR","EPOCH":"2026-03-05T18:23:02.039712","MEAN_MOTION":14.44079976,"ECCENTRICITY":0.0254198,"INCLINATION":98.2326,"RA_OF_ASC_NODE":48.4457,"ARG_OF_PERICENTER":237.9608,"MEAN_ANOMALY":119.6665,"EPHEMERIS_TYPE":0,"CLASSIFICATION_TYPE":"U","NORAD_CAT_ID":36695,"ELEMENT_SET_NO":999,"REV_AT_EPOCH":90766,"BSTAR":0.00026075166,"MEAN_MOTION_DOT":1.268e-5,"MEAN_MOTION_DDOT":0}]
